{"type": "FeatureCollection", "features": [ {"type": "Feature", "properties": {"norad_id": 29999, "name": "FENGYUN 1C DEB", "group": "fengyun-1c-debris", "lat": -19.53919546602296, "lon": -28.38289935744314, "alt_km": 951.6373739493592, "timestamp": "2025-12-10T04:57:29.891392+00:00", "meta": {"OBJECT_NAME": "FENGYUN 1C DEB", "OBJECT_ID": "1999-025LZ", "EPOCH": "2025-12-09T18:01:19.563168", "MEAN_MOTION": 14.20128334, "ECCENTRICITY": 0.0189458, "INCLINATION": 98.5761, "RA_OF_ASC_NODE": 328.1052, "ARG_OF_PERICENTER": 135.1709, "MEAN_ANOMALY": 37.8504, "EPHEMERIS_TYPE": 0, "CLASSIFICATION_TYPE": "U", "NORAD_CAT_ID": 29999, "ELEMENT_SET_NO": 999, "REV_AT_EPOCH": 97681, "BSTAR": 0.00042399, "MEAN_MOTION_DOT": 1.04e-05, "MEAN_MOTION_DDOT": 0}, "tle": {"line1": "1 29999U 99025LZ  25343.75092087  .00001040  00000+0  42399-3 0  9992", "line2": "2 29999  98.5761 328.1052 0189458 135.1709  37.8504 14.20128334976814"}}, "geometry": {"type": "Point", "coordinates": [-28.38289935744314, -19.53919546602296]}}, {"type": "Feature", "properties": {"norad_id": 30001, "name": "FENGYUN 1C DEB", "group": "fengyun-1c-debris", "lat": 57.63022183610838, "lon": -106.4464939737948, "alt_km": 731.3534166644176, "timestamp": "2025-12-10T04:57:29.891403+00:00", "meta": {"OBJECT_NAME": "FENGYUN 1C DEB", "OBJECT_ID": "1999-025MA", "EPOCH": "2025-12-09T03:39:32.793696", "MEAN_MOTION": 14.38489134, "ECCENTRICITY": 0.00384045, "INCLINATION": 98.9589, "RA_OF_ASC_NODE": 58.0436, "ARG_OF_PERICENTER": 109.2037, "MEAN_ANOMALY": 316.0351, "EPHEMERIS_TYPE": 0, "CLASSIFICATION_TYPE": "U", "NORAD_CAT_ID": 30001, "ELEMENT_SET_NO": 999, "REV_AT_EPOCH": 97380, "BSTAR": 0.0031612264, "MEAN_MOTION_DOT": 9.705e-05, "MEAN_MOTION_DDOT": 0}, "tle": {"line1": "1 30001U 99025MA  25343.15246289  .00009705  00000+0  31612-2 0  9998", "line2": "2 30001  98.9589  58.0436 0038404 109.2037 316.0351 14.38489134973802"}}, "geometry": {"type": "Point", "coordinates": [-106.4464939737948, 57.63022183610838]}}, {"type": "Feature", "properties": {"norad_id": 30003, "name": "FENGYUN 1C DEB", "group": "fengyun-1c-debris", "lat": 48.075828814172624, "lon": -51.88366105911006, "alt_km": 915.4505024465952, "timestamp": "2025-12-10T04:57:29.891413+00:00", "meta": {"OBJECT_NAME": "FENGYUN 1C DEB", "OBJECT_ID": "1999-025MC", "EPOCH": "2025-12-09T17:26:11.982048", "MEAN_MOTION": 13.85620622, "ECCENTRICITY": 0.0143324, "INCLINATION": 99.5763, "RA_OF_ASC_NODE": 318.4614, "ARG_OF_PERICENTER": 127.8113, "MEAN_ANOMALY": 49.4226, "EPHEMERIS_TYPE": 0, "CLASSIFICATION_TYPE": "U", "NORAD_CAT_ID": 30003, "ELEMENT_SET_NO": 999, "REV_AT_EPOCH": 95446, "BSTAR": 0.00042843, "MEAN_MOTION_DOT": 4.85e-06, "MEAN_MOTION_DDOT": 0}, "tle": {"line1": "1 30003U 99025MC  25343.72652757  .00000485  00000+0  42843-3 0  9999", "line2": "2 30003  99.5763 318.4614 0143324 127.8113  49.4226 13.85620622954464"}}, "geometry": {"type": "Point", "coordinates": [-51.88366105911006, 48.075828814172624]}}, {"type": "Feature", "properties": {"norad_id": 30004, "name": "FENGYUN 1C DEB", "group": "fengyun-1c-debris", "lat": -39.07926152041169, "lon": 172.8151412816806, "alt_km": 817.469071401636, "timestamp": "2025-12-10T04:57:29.891423+00:00", "meta": {"OBJECT_NAME": "FENGYUN 1C DEB", "OBJECT_ID": "1999-025MD", "EPOCH": "2025-12-09T10:46:30.861120", "MEAN_MOTION": 14.17046179, "ECCENTRICITY": 0.00386681, "INCLINATION": 99.2235, "RA_OF_ASC_NODE": 164.4473, "ARG_OF_PERICENTER": 352.1629, "MEAN_ANOMALY": 65.6566, "EPHEMERIS_TYPE": 0, "CLASSIFICATION_TYPE": "U", "NORAD_CAT_ID": 30004, "ELEMENT_SET_NO": 999, "REV_AT_EPOCH": 97260, "BSTAR": 0.0011820754, "MEAN_MOTION_DOT": 2.348e-05, "MEAN_MOTION_DDOT": 0}, "tle": {"line1": "1 30004U 99025MD  25343.44896830  .00002348  00000+0  11821-2 0  9992", "line2": "2 30004  99.2235 164.4473 0038668 352.1629  65.6566 14.17046179972605"}}, "geometry": {"type": "Point", "coordinates": [172.8151412816806, -39.07926152041169]}}, {"type": "Feature", "properties": {"norad_id": 30005, "name": "FENGYUN 1C DEB", "group": "fengyun-1c-debris", "lat": 19.471419254072284, "lon": -57.009991432738474, "alt_km": 1010.3722689150454, "timestamp": "2025-12-10T04:57:29.891434+00:00", "meta": {"OBJECT_NAME": "FENGYUN 1C DEB", "OBJECT_ID": "1999-025ME", "EPOCH": "2025-12-09T09:19:38.162496", "MEAN_MOTION": 13.52206035, "ECCENTRICITY": 0.0346658, "INCLINATION": 99.3019, "RA_OF_ASC_NODE": 305.5434, "ARG_OF_PERICENTER": 101.84, "MEAN_ANOMALY": 262.1829, "EPHEMERIS_TYPE": 0, "CLASSIFICATION_TYPE": "U", "NORAD_CAT_ID": 30005, "ELEMENT_SET_NO": 999, "REV_AT_EPOCH": 92901, "BSTAR": 0.0016875402, "MEAN_MOTION_DOT": 1.585e-05, "MEAN_MOTION_DDOT": 0}, "tle": {"line1": "1 30005U 99025ME  25343.38863614  .00001585  00000+0  16875-2 0  9996", "line2": "2 30005  99.3019 305.5434 0346658 101.8400 262.1829 13.52206035929019"}}, "geometry": {"type": "Point", "coordinates": [-57.009991432738474, 19.471419254072284]}}, {"type": "Feature", "properties": {"norad_id": 30007, "name": "FENGYUN 1C DEB", "group": "fengyun-1c-debris", "lat": -58.08310194679138, "lon": -99.51902806685418, "alt_km": 806.617926848844, "timestamp": "2025-12-10T04:57:29.891444+00:00", "meta": {"OBJECT_NAME": "FENGYUN 1C DEB", "OBJECT_ID": "1999-025MG", "EPOCH": "2025-12-09T11:30:46.990656", "MEAN_MOTION": 14.25373311, "ECCENTRICITY": 0.00657157, "INCLINATION": 99.1776, "RA_OF_ASC_NODE": 244.677, "ARG_OF_PERICENTER": 23.9099, "MEAN_ANOMALY": 149.7708, "EPHEMERIS_TYPE": 0, "CLASSIFICATION_TYPE": "U", "NORAD_CAT_ID": 30007, "ELEMENT_SET_NO": 999, "REV_AT_EPOCH": 97309, "BSTAR": 0.0029167545, "MEAN_MOTION_DOT": 6.992e-05, "MEAN_MOTION_DDOT": 0}, "tle": {"line1": "1 30007U 99025MG  25343.47971054  .00006992  00000+0  29168-2 0  9992", "line2": "2 30007  99.1776 244.6770 0065715  23.9099 149.7708 14.25373311973091"}}, "geometry": {"type": "Point", "coordinates": [-99.51902806685418, -58.08310194679138]}}, {"type": "Feature", "properties": {"norad_id": 30008, "name": "FENGYUN 1C DEB", "group": "fengyun-1c-debris", "lat": -5.454314018365899, "lon": 119.32294592062367, "alt_km": 650.4456685340056, "timestamp": "2025-12-10T04:57:29.891454+00:00", "meta": {"OBJECT_NAME": "FENGYUN 1C DEB", "OBJECT_ID": "1999-025MH", "EPOCH": "2025-12-09T20:01:27.242976", "MEAN_MOTION": 14.66190739, "ECCENTRICITY": 0.0038708, "INCLINATION": 99.369, "RA_OF_ASC_NODE": 299.8019, "ARG_OF_PERICENTER": 201.287, "MEAN_ANOMALY": 180.4989, "EPHEMERIS_TYPE": 0, "CLASSIFICATION_TYPE": "U", "NORAD_CAT_ID": 30008, "ELEMENT_SET_NO": 999, "REV_AT_EPOCH": 99017, "BSTAR": 0.0032702, "MEAN_MOTION_DOT": 0.0001818, "MEAN_MOTION_DDOT": 0}, "tle": {"line1": "1 30008U 99025MH  25343.83434309  .00018180  00000+0  32702-2 0  9990", "line2": "2 30008  99.3690 299.8019 0038708 201.2870 180.4989 14.66190739990174"}}, "geometry": {"type": "Point", "coordinates": [119.32294592062367, -5.454314018365899]}}, {"type": "Feature", "properties": {"norad_id": 30009, "name": "FENGYUN 1C DEB", "group": "fengyun-1c-debris", "lat": 79.88550873418049, "lon": -23.716734152333576, "alt_km": 879.4864012262178, "timestamp": "2025-12-10T04:57:29.891465+00:00", "meta": {"OBJECT_NAME": "FENGYUN 1C DEB", "OBJECT_ID": "1999-025MJ", "EPOCH": "2025-12-09T09:45:12.077856", "MEAN_MOTION": 14.04845075, "ECCENTRICITY": 0.00637778, "INCLINATION": 99.0149, "RA_OF_ASC_NODE": 38.3514, "ARG_OF_PERICENTER": 344.9975, "MEAN_ANOMALY": 14.9299, "EPHEMERIS_TYPE": 0, "CLASSIFICATION_TYPE": "U", "NORAD_CAT_ID": 30009, "ELEMENT_SET_NO": 999, "REV_AT_EPOCH": 96436, "BSTAR": 0.0010296232, "MEAN_MOTION_DOT": 1.639e-05, "MEAN_MOTION_DDOT": 0}, "tle": {"line1": "1 30009U 99025MJ  25343.40638979  .00001639  00000+0  10296-2 0  9998", "line2": "2 30009  99.0149  38.3514 0063777 344.9975  14.9299 14.04845075964361"}}, "geometry": {"type": "Point", "coordinates": [-23.716734152333576, 79.88550873418049]}}, {"type": "Feature", "properties": {"norad_id": 30010, "name": "FENGYUN 1C DEB", "group": "fengyun-1c-debris", "lat": 80.70492350495317, "lon": 73.69684377457986, "alt_km": 830.5341237306884, "timestamp": "2025-12-10T04:57:29.891475+00:00", "meta": {"OBJECT_NAME": "FENGYUN 1C DEB", "OBJECT_ID": "1999-025MK", "EPOCH": "2025-12-09T18:28:05.817792", "MEAN_MOTION": 14.24984544, "ECCENTRICITY": 0.0072567, "INCLINATION": 99.0699, "RA_OF_ASC_NODE": 175.8276, "ARG_OF_PERICENTER": 217.9768, "MEAN_ANOMALY": 153.7593, "EPHEMERIS_TYPE": 0, "CLASSIFICATION_TYPE": "U", "NORAD_CAT_ID": 30010, "ELEMENT_SET_NO": 999, "REV_AT_EPOCH": 98218, "BSTAR": 0.00024228, "MEAN_MOTION_DOT": 5.35e-06, "MEAN_MOTION_DDOT": 0}, "tle": {"line1": "1 30010U 99025MK  25343.76951178  .00000535  00000+0  24228-3 0  9993", "line2": "2 30010  99.0699 175.8276 0072567 217.9768 153.7593 14.24984544982187"}}, "geometry": {"type": "Point", "coordinates": [73.69684377457986, 80.70492350495317]}}, {"type": "Feature", "properties": {"norad_id": 30012, "name": "FENGYUN 1C DEB", "group": "fengyun-1c-debris", "lat": 40.678280965990794, "lon": 29.17019100904903, "alt_km": 974.8560618141219, "timestamp": "2025-12-10T04:57:29.891485+00:00", "meta": {"OBJECT_NAME": "FENGYUN 1C DEB", "OBJECT_ID": "1999-025MM", "EPOCH": "2025-12-09T03:01:53.489856", "MEAN_MOTION": 13.85761314, "ECCENTRICITY": 0.0136995, "INCLINATION": 99.4647, "RA_OF_ASC_NODE": 36.3222, "ARG_OF_PERICENTER": 155.2517, "MEAN_ANOMALY": 261.2841, "EPHEMERIS_TYPE": 0, "CLASSIFICATION_TYPE": "U", "NORAD_CAT_ID": 30012, "ELEMENT_SET_NO": 999, "REV_AT_EPOCH": 95498, "BSTAR": 0.00042279481, "MEAN_MOTION_DOT": 4.76e-06, "MEAN_MOTION_DDOT": 0}, "tle": {"line1": "1 30012U 99025MM  25343.12631354  .00000476  00000+0  42279-3 0  9996", "line2": "2 30012  99.4647  36.3222 0136995 155.2517 261.2841 13.85761314954982"}}, "geometry": {"type": "Point", "coordinates": [29.17019100904903, 40.678280965990794]}}]}